[Satellite]
VERSION=1.1
NAME=DAMPE
NICKNAME=DAMPE
TLE1=1 41173U 15078A   20157.87243105  .00000034  00000-0  43133-5 0  9998
TLE2=2 41173  97.3235 152.1432 0012332 296.7037 124.4902 15.23876140248632
STATUS=0
